start=new Date('2022-11-16T00:00:00.000Z').valueOf();
sats=[{"PERIOD":"95.593","OBJECT_ID":"2020-074BM","OBJECT_NAME":"STARLINK-1948","RCS_SIZE":"LARGE","LAUNCH_DATE":"2020-10-24","SEMIMAJOR_AXIS":"6925.375","MEAN_MOTION":"15.06391280","MEAN_MOTION_DDOT":"0.0000000000000","TLE_LINE1":"1 46798U 20074BM  22319.55945359  .00000510  00000-0  53166-4 0  9990","ECCENTRICITY":"0.00014760","ARG_OF_PERICENTER":"58.1132","EPHEMERIS_TYPE":"0","CLASSIFICATION_TYPE":"U","INCLINATION":"53.0552","MEAN_ELEMENT_THEORY":"SGP4","MEAN_MOTION_DOT":"0.00000510","OBJECT_TYPE":"PAYLOAD","COUNTRY_CODE":"US","CENTER_NAME":"EARTH","ELEMENT_SET_NO":"999","GP_ID":"217843108","REF_FRAME":"TEME","TIME_SYSTEM":"UTC","APOAPSIS":"548.262","PERIAPSIS":"546.218","REV_AT_EPOCH":"11407","SITE":"AFETR","FILE":"3657603","TLE_LINE2":"2 46798  53.0552   9.1106 0001476  58.1132 302.0001 15.06391280114075","RA_OF_ASC_NODE":"9.1106","BSTAR":"0.00005316600000","MEAN_ANOMALY":"302.0001","EPOCH":"2022-11-15T13:25:36.790176","NORAD_CAT_ID":"46798","DECAY_DATE":null},{"TIME_SYSTEM":"UTC","REF_FRAME":"TEME","PERIAPSIS":"545.995","APOAPSIS":"548.437","MEAN_MOTION_DOT":"0.00004869","GP_ID":"217903734","COUNTRY_CODE":"US","CENTER_NAME":"EARTH","ELEMENT_SET_NO":"999","OBJECT_TYPE":"PAYLOAD","BSTAR":"0.00034552000000","DECAY_DATE":null,"NORAD_CAT_ID":"47122","EPOCH":"2022-11-15T18:42:07.276896","MEAN_ANOMALY":"300.7126","SITE":"AFETR","REV_AT_EPOCH":"10947","FILE":"3657961","TLE_LINE2":"2 47122  53.0555 333.1109 0001763  59.4037 300.7126 15.06399334109479","RA_OF_ASC_NODE":"333.1109","MEAN_MOTION":"15.06399334","SEMIMAJOR_AXIS":"6925.351","MEAN_MOTION_DDOT":"0.0000000000000","OBJECT_ID":"2020-088A","PERIOD":"95.592","LAUNCH_DATE":"2020-11-25","RCS_SIZE":"LARGE","OBJECT_NAME":"STARLINK-1777","INCLINATION":"53.0555","EPHEMERIS_TYPE":"0","CLASSIFICATION_TYPE":"U","MEAN_ELEMENT_THEORY":"SGP4","ARG_OF_PERICENTER":"59.4037","ECCENTRICITY":"0.00017630","TLE_LINE1":"1 47122U 20088A   22319.77925089  .00004869  00000-0  34552-3 0  9997"},{"REF_FRAME":"TEME","TIME_SYSTEM":"UTC","APOAPSIS":"548.287","PERIAPSIS":"546.099","MEAN_MOTION_DOT":"0.00004268","COUNTRY_CODE":"US","CENTER_NAME":"EARTH","ELEMENT_SET_NO":"999","GP_ID":"217903984","OBJECT_TYPE":"PAYLOAD","BSTAR":"0.00030518000000","DECAY_DATE":null,"MEAN_ANOMALY":"297.8333","EPOCH":"2022-11-15T19:58:25.232736","NORAD_CAT_ID":"47124","SITE":"AFETR","REV_AT_EPOCH":"10941","FILE":"3657961","TLE_LINE2":"2 47124  53.0557 337.8979 0001580  62.2816 297.8333 15.06406675109410","RA_OF_ASC_NODE":"337.8979","SEMIMAJOR_AXIS":"6925.328","MEAN_MOTION":"15.06406675","MEAN_MOTION_DDOT":"0.0000000000000","OBJECT_ID":"2020-088C","PERIOD":"95.592","RCS_SIZE":"LARGE","OBJECT_NAME":"STARLINK-1785","LAUNCH_DATE":"2020-11-25","INCLINATION":"53.0557","EPHEMERIS_TYPE":"0","CLASSIFICATION_TYPE":"U","MEAN_ELEMENT_THEORY":"SGP4","ECCENTRICITY":"0.00015800","ARG_OF_PERICENTER":"62.2816","TLE_LINE1":"1 47124U 20088C   22319.83223649  .00004268  00000-0  30518-3 0  9990"},{"CLASSIFICATION_TYPE":"U","EPHEMERIS_TYPE":"0","INCLINATION":"53.0553","MEAN_ELEMENT_THEORY":"SGP4","TLE_LINE1":"1 47126U 20088E   22319.53966487  .00002255  00000-0  17027-3 0  9997","ARG_OF_PERICENTER":"54.3917","ECCENTRICITY":"0.00018830","MEAN_MOTION":"15.06400034","SEMIMAJOR_AXIS":"6925.348","MEAN_MOTION_DDOT":"0.0000000000000","PERIOD":"95.592","OBJECT_ID":"2020-088E","LAUNCH_DATE":"2020-11-25","OBJECT_NAME":"STARLINK-1812","RCS_SIZE":"LARGE","BSTAR":"0.00017027000000","NORAD_CAT_ID":"47126","MEAN_ANOMALY":"305.7247","EPOCH":"2022-11-15T12:57:07.044768","DECAY_DATE":null,"REV_AT_EPOCH":"10944","SITE":"AFETR","TLE_LINE2":"2 47126  53.0553 334.1842 0001883  54.3917 305.7247 15.06400034109446","RA_OF_ASC_NODE":"334.1842","FILE":"3657961","TIME_SYSTEM":"UTC","REF_FRAME":"TEME","PERIAPSIS":"545.909","APOAPSIS":"548.517","MEAN_MOTION_DOT":"0.00002255","OBJECT_TYPE":"PAYLOAD","GP_ID":"217904236","COUNTRY_CODE":"US","CENTER_NAME":"EARTH","ELEMENT_SET_NO":"999"},{"ECCENTRICITY":"0.00018910","ARG_OF_PERICENTER":"53.6803","TLE_LINE1":"1 47128U 20088G   22319.36459533 -.00000327  00000-0 -30211-5 0  9991","INCLINATION":"53.0557","CLASSIFICATION_TYPE":"U","EPHEMERIS_TYPE":"0","MEAN_ELEMENT_THEORY":"SGP4","OBJECT_ID":"2020-088G","PERIOD":"95.593","RCS_SIZE":"LARGE","OBJECT_NAME":"STARLINK-1837","LAUNCH_DATE":"2020-11-25","SEMIMAJOR_AXIS":"6925.391","MEAN_MOTION":"15.06386237","MEAN_MOTION_DDOT":"0.0000000000000","SITE":"AFETR","REV_AT_EPOCH":"10969","RA_OF_ASC_NODE":"314.9778","TLE_LINE2":"2 47128  53.0557 314.9778 0001891  53.6803 306.4360 15.06386237109690","FILE":"3657603","BSTAR":"-0.00000302110000","DECAY_DATE":null,"EPOCH":"2022-11-15T08:45:01.036512","MEAN_ANOMALY":"306.4360","NORAD_CAT_ID":"47128","MEAN_MOTION_DOT":"-0.00000327","CENTER_NAME":"EARTH","COUNTRY_CODE":"US","ELEMENT_SET_NO":"999","GP_ID":"217844396","OBJECT_TYPE":"PAYLOAD","TIME_SYSTEM":"UTC","REF_FRAME":"TEME","APOAPSIS":"548.565","PERIAPSIS":"545.946"},{"SEMIMAJOR_AXIS":"6925.363","MEAN_MOTION":"15.06395434","MEAN_MOTION_DDOT":"0.0000000000000","PERIOD":"95.592","OBJECT_ID":"2020-088H","RCS_SIZE":"LARGE","OBJECT_NAME":"STARLINK-1838","LAUNCH_DATE":"2020-11-25","CLASSIFICATION_TYPE":"U","EPHEMERIS_TYPE":"0","INCLINATION":"53.0565","MEAN_ELEMENT_THEORY":"SGP4","TLE_LINE1":"1 47129U 20088H   22319.39314813  .00000134  00000-0  27885-4 0  9992","ECCENTRICITY":"0.00019310","ARG_OF_PERICENTER":"51.3364","REF_FRAME":"TEME","TIME_SYSTEM":"UTC","APOAPSIS":"548.565","PERIAPSIS":"545.890","MEAN_MOTION_DOT":"0.00000134","OBJECT_TYPE":"PAYLOAD","COUNTRY_CODE":"US","CENTER_NAME":"EARTH","ELEMENT_SET_NO":"999","GP_ID":"217845644","BSTAR":"0.00002788500000","EPOCH":"2022-11-15T09:26:07.998432","MEAN_ANOMALY":"308.7798","NORAD_CAT_ID":"47129","DECAY_DATE":null,"REV_AT_EPOCH":"10956","SITE":"AFETR","RA_OF_ASC_NODE":"324.8593","TLE_LINE2":"2 47129  53.0565 324.8593 0001931  51.3364 308.7798 15.06395434109562","FILE":"3657603"},{"PERIAPSIS":"409.820","APOAPSIS":"414.623","REF_FRAME":"TEME","TIME_SYSTEM":"UTC","OBJECT_TYPE":"PAYLOAD","GP_ID":"217845389","ELEMENT_SET_NO":"999","COUNTRY_CODE":"US","CENTER_NAME":"EARTH","MEAN_MOTION_DOT":"0.00034861","NORAD_CAT_ID":"47130","MEAN_ANOMALY":"304.3489","EPOCH":"2022-11-15T10:13:27.962976","DECAY_DATE":null,"BSTAR":"0.00058395000000","TLE_LINE2":"2 47130  53.0569 336.0572 0003537  55.7855 304.3489 15.51543372109405","RA_OF_ASC_NODE":"336.0572","FILE":"3657603","REV_AT_EPOCH":"10940","SITE":"AFETR","MEAN_MOTION_DDOT":"0.0000000000000","MEAN_MOTION":"15.51543372","SEMIMAJOR_AXIS":"6790.356","LAUNCH_DATE":"2020-11-25","OBJECT_NAME":"STARLINK-1839","RCS_SIZE":"LARGE","PERIOD":"92.811","OBJECT_ID":"2020-088J","MEAN_ELEMENT_THEORY":"SGP4","EPHEMERIS_TYPE":"0","CLASSIFICATION_TYPE":"U","INCLINATION":"53.0569","TLE_LINE1":"1 47130U 20088J   22319.42601809  .00034861  00000-0  58395-3 0  9995","ARG_OF_PERICENTER":"55.7855","ECCENTRICITY":"0.00035370"},{"TLE_LINE1":"1 47133U 20088M   22319.85021196  .00000967  00000-0  83850-4 0  9995","ARG_OF_PERICENTER":"63.6218","ECCENTRICITY":"0.00014520","EPHEMERIS_TYPE":"0","CLASSIFICATION_TYPE":"U","INCLINATION":"53.0542","MEAN_ELEMENT_THEORY":"SGP4","PERIOD":"95.593","OBJECT_ID":"2020-088M","LAUNCH_DATE":"2020-11-25","OBJECT_NAME":"STARLINK-1843","RCS_SIZE":"LARGE","MEAN_MOTION":"15.06390214","SEMIMAJOR_AXIS":"6925.379","MEAN_MOTION_DDOT":"0.0000000000000","REV_AT_EPOCH":"10962","SITE":"AFETR","RA_OF_ASC_NODE":"322.8139","TLE_LINE2":"2 47133  53.0542 322.8139 0001452  63.6218 296.4920 15.06390214109626","FILE":"3657961","BSTAR":"0.00008385000000","NORAD_CAT_ID":"47133","MEAN_ANOMALY":"296.4920","EPOCH":"2022-11-15T20:24:18.313344","DECAY_DATE":null,"MEAN_MOTION_DOT":"0.00000967","OBJECT_TYPE":"PAYLOAD","GP_ID":"217904736","CENTER_NAME":"EARTH","COUNTRY_CODE":"US","ELEMENT_SET_NO":"999","TIME_SYSTEM":"UTC","REF_FRAME":"TEME","PERIAPSIS":"546.238","APOAPSIS":"548.249"},{"SEMIMAJOR_AXIS":"6925.382","MEAN_MOTION":"15.06388981","MEAN_MOTION_DDOT":"0.0000000000000","OBJECT_ID":"2020-088N","PERIOD":"95.593","OBJECT_NAME":"STARLINK-1844","RCS_SIZE":"LARGE","LAUNCH_DATE":"2020-11-25","INCLINATION":"53.0558","EPHEMERIS_TYPE":"0","CLASSIFICATION_TYPE":"U","MEAN_ELEMENT_THEORY":"SGP4","ECCENTRICITY":"0.00016500","ARG_OF_PERICENTER":"64.3365","TLE_LINE1":"1 47134U 20088N   22319.75714183  .00001613  00000-0  12718-3 0  9993","TIME_SYSTEM":"UTC","REF_FRAME":"TEME","APOAPSIS":"548.390","PERIAPSIS":"546.105","MEAN_MOTION_DOT":"0.00001613","COUNTRY_CODE":"US","CENTER_NAME":"EARTH","ELEMENT_SET_NO":"999","GP_ID":"217904487","OBJECT_TYPE":"PAYLOAD","BSTAR":"0.00012718000000","DECAY_DATE":null,"EPOCH":"2022-11-15T18:10:17.054112","MEAN_ANOMALY":"295.7794","NORAD_CAT_ID":"47134","SITE":"AFETR","REV_AT_EPOCH":"10947","FILE":"3657961","TLE_LINE2":"2 47134  53.0558 333.2268 0001650  64.3365 295.7794 15.06388981109476","RA_OF_ASC_NODE":"333.2268"},{"MEAN_ELEMENT_THEORY":"SGP4","CLASSIFICATION_TYPE":"U","EPHEMERIS_TYPE":"0","INCLINATION":"53.0551","TLE_LINE1":"1 47135U 20088P   22319.51110214 -.00000459  00000-0 -11910-4 0  9996","ECCENTRICITY":"0.00019230","ARG_OF_PERICENTER":"57.0915","MEAN_MOTION_DDOT":"0.0000000000000","SEMIMAJOR_AXIS":"6925.386","MEAN_MOTION":"15.06387890","OBJECT_NAME":"STARLINK-1845","RCS_SIZE":"LARGE","LAUNCH_DATE":"2020-11-25","PERIOD":"95.593","OBJECT_ID":"2020-088P","MEAN_ANOMALY":"303.0259","EPOCH":"2022-11-15T12:15:59.224896","NORAD_CAT_ID":"47135","DECAY_DATE":null,"BSTAR":"-0.00001191000000","TLE_LINE2":"2 47135  53.0551 324.3268 0001923  57.0915 303.0259 15.06387890109886","RA_OF_ASC_NODE":"324.3268","FILE":"3657823","REV_AT_EPOCH":"10988","SITE":"AFETR","APOAPSIS":"548.582","PERIAPSIS":"545.919","REF_FRAME":"TEME","TIME_SYSTEM":"UTC","OBJECT_TYPE":"PAYLOAD","COUNTRY_CODE":"US","CENTER_NAME":"EARTH","ELEMENT_SET_NO":"999","GP_ID":"217879982","MEAN_MOTION_DOT":"-0.00000459"}];
